CALSPHERE 1             
1 00900U 64063C   09190.93244989  .00000173  00000-0  18413-3 0  8311
2 00900  90.1618 327.4639 0029040 159.9719 200.2584 13.70471856222588
CALSPHERE 2             
1 00902U 64063E   09190.42830757  .00000075  00000-0  10000-3 0  1016
2 00902  90.1601 330.4277 0017279 177.7810 182.3415 13.52465724 20378
LCS 1                   
1 01361U 65034C   09189.95316134  .00000009  00000-0  10000-3 0  1230
2 01361  32.1389 107.3610 0006342  64.3208 295.7946  9.89276725597519
TEMPSAT 1               
1 01512U 65065E   09190.82255112  .00000059  00000-0  10000-3 0  1840
2 01512  89.8120 299.9671 0069665 338.5007  21.3201 13.33258554135647
CALSPHERE 4(A)          
1 01520U 65065H   09190.77032277  .00000059  00000-0  10000-3 0  3198
2 01520  90.1870  83.6638 0068244 264.5683  94.7659 13.35316532137268
OPS 5712 (P/L 160)      
1 02826U 67053A   09190.23718222  .00000296  00000-0  11684-3 0  7667
2 02826  69.9328 117.4591 0005517 125.7853 234.3804 14.38268855170466
OPS 5712 (P/L 153)      
1 02874U 67053H   09190.21092489 -.00000048  00000-0  39473-5 0  1576
2 02874  69.9723  44.8299 0009308 294.8846  65.1289 13.95924141143611
SURCAL 150B             
1 02909U 67053J   09190.82345160  .00000278  00000-0  94012-4 0  9424
2 02909  69.9562 290.1594 0005144 288.6539  71.4032 14.46484256176245
RIGIDSPHERE 2 (LCS 4)   
1 05398U 71067E   09190.07831728  .00000135  00000-0  42911-4 0  6044
2 05398  87.6215 243.4207 0068291 102.5518 258.3347 14.31160808987699
RADCAT                  
1 06212U 72076A   09190.35167781  .00001553  00000-0  58747-4 0  7807
2 06212  98.5932 201.8881 0001875 281.8683  78.2408 15.28911011126269
